0 SL-16 DEB
1 22598U 92093HX  13281.93222457  .00000368  00000-0  27239-3 0  8293
2 22598 070.6479 326.4530 0089869 110.7223 310.1913 14.00082635 58123
0 SL-16 DEB
1 22598U 92093HX  13282.93396214  .00000301  00000-0  22887-3 0  8300
2 22598 070.6477 324.3636 0089819 109.2500 319.2905 14.00084171 58264
0 SL-16 DEB
1 22598U 92093HX  13286.14715235  .00000355  00000-0  26433-3 0  8327
2 22598 070.6472 317.6618 0089723 104.5221 314.9113 14.00086809 58719
0 SL-16 DEB
1 22598U 92093HX  13287.52297229  .00000489  00000-0  35211-3 0  8331
2 22598 070.6470 314.7920 0089705 102.4980 049.5465 14.00087026 58904
0 SL-16 DEB
1 22598U 92093HX  13288.52302833  .00000642  00000-0  45198-3 0  8347
2 22598 070.6469 312.7061 0089685 101.0233 050.1983 14.00088376 59047
0 SL-16 DEB
1 22598U 92093HX  13290.15772251  .00000501  00000-0  35986-3 0  8353
2 22598 070.6470 309.2962 0089668 098.6151 009.6615 14.00091106 59272
0 SL-16 DEB
1 22598U 92093HX  13291.15834591  .00000428  00000-0  31213-3 0  8368
2 22598 070.6470 307.2090 0089659 097.1352 013.1851 14.00092857 59411
0 SL-16 DEB
1 22598U 92093HX  13292.79034937  .00000458  00000-0  33180-3 0  8374
2 22598 070.6472 303.8049 0089655 094.7180 319.1231 14.00094736 59641
0 SL-16 DEB
1 22598U 92093HX  13293.79074501  .00000513  00000-0  36764-3 0  8380
2 22598 070.6472 301.7181 0089663 093.2416 321.5128 14.00095301 59786
0 SL-16 DEB
1 22598U 92093HX  13295.45310764  .00000666  00000-0  46782-3 0  8390
2 22598 070.6471 298.2505 0089692 090.8240 060.4526 14.00096183 60013
